SKYSAT-C1               
1 41601U 16040C   21180.73357268  .00002346  00000-0  62122-4 0  9998
2 41601  97.1908 257.9783 0001234 123.9275 236.2088 15.39353801279711
GHGSAT-D                
1 41602U 16040D   21180.72687102  .00001257  00000-0  54870-4 0  9992
2 41602  97.2579 233.7780 0007370 310.0132  50.0458 15.23894864278910
LAPAN-A3                
1 41603U 16040E   21180.90789528  .00000270  00000-0  15557-4 0  9991
2 41603  97.2544 227.3664 0012346 325.8672 158.8610 15.20047084278474
BIROS                   
1 41604U 16040F   21180.88618495  .00000803  00000-0  37424-4 0  9992
2 41604  97.2615 232.9152 0010568 301.3022  58.7179 15.22617282278798
M3MSAT                  
1 41605U 16040G   21180.85077646  .00000826  00000-0  39137-4 0  9995
2 41605  97.2605 231.2535 0010695 318.5434  41.4990 15.21952746278687
SWAYAM                  
1 41607U 16040J   21180.69458936  .00002582  00000-0  10327-3 0  9994
2 41607  97.2663 236.3350 0010851 298.6133  61.4013 15.25933219278914
FLOCK 2P-9              
1 41610U 16040M   21180.87657865  .00002279  00000-0  86056-4 0  9996
2 41610  97.2788 242.2606 0008013 276.1638  83.8689 15.28000959279146
FLOCK 2P-8              
1 41613U 16040Q   21180.84094831  .00002322  00000-0  87644-4 0  9997
2 41613  97.2835 243.0952 0007834 287.7123  72.3262 15.27993101279309
FLOCK 2P-3              
1 41618U 16040V   21180.81914340  .00002695  00000-0  10122-3 0  9994
2 41618  97.2855 243.4525 0007622 288.3393  71.7017 15.28014922279304
BEESAT-4                
1 41619U 16040W   21180.85638562  .00002630  00000-0  10625-3 0  9995
2 41619  97.2681 236.5996 0008849 290.4716  69.5573 15.25594112266907
MUOS-5                  
1 41622U 16041A   21180.37781547 -.00000164  00000-0  00000-0 0  9993
2 41622   6.4209 303.8798 0201530 225.7577 138.9913  1.00270939 18905
SJ 16-02                
1 41634U 16043A   21180.49652224  .00000164  00000-0  21947-4 0  9996
2 41634  75.0044  87.6740 0007134 117.8804 242.3117 14.85813725271235
TIANTONG-1 1            
1 41725U 16048A   21180.70964811 -.00000325  00000-0  00000-0 0  9997
2 41725   2.5274 344.1344 0004303 107.5855 183.0749  1.00267069 18085
GAOFEN 3                
1 41727U 16049A   21180.61170707 -.00000035  00000-0  25020-5 0  9995
2 41727  98.4080 188.9320 0000754  66.5945 293.5323 14.42212070257233
JCSAT-16                
1 41729U 16050A   21180.35530689 -.00000366  00000-0  00000-0 0  9992
2 41729   0.0356  79.2846 0001064 155.0650 295.1284  1.00267558 17887
QSS (MOZI)              
1 41731U 16051A   21180.90927294  .00000545  00000-0  24216-4 0  9996
2 41731  97.3476  93.2165 0014518 110.7966 319.9030 15.25580724271104
USA 270                 
1 41744U 16052A   21172.66880971 -.00000005  00000-0  00000+0 0  9997
2 41744   0.0754 106.0109 0009009 215.7122 256.0719  1.00272097   472
USA 271                 
1 41745U 16052B   21172.41611949 -.00000352  00000-0  00000+0 0  9993
2 41745   0.9820  96.3726 0001406 291.1707 140.8030  1.00447785   476
INTELSAT 36 (IS-36)     
1 41747U 16053A   21180.84668933 -.00000033  00000-0  00000-0 0  9994
2 41747   0.0102   3.7273 0002516  12.7512 274.9574  1.00271824 17788
INTELSAT 33E (IS-33E)   
1 41748U 16053B   21180.11829289  .00000039  00000-0  00000-0 0  9993
2 41748   0.0180  13.8320 0002052 101.1076 265.0591  1.00273549 18050
INSAT-3DR               
1 41752U 16054A   21180.82779218 -.00000086  00000-0  00000-0 0  9996
2 41752   0.1238  99.6997 0009284 168.5652  21.8384  1.00271572 17627
PERUSAT 1               
1 41770U 16058A   21180.54812807  .00000020  00000-0  14040-4 0  9991
2 41770  98.1926 254.2344 0001443  99.7316 260.4039 14.58561192254723
SKYSAT-C4               
1 41771U 16058B   21180.87660118  .00002419  00000-0  64404-4 0  9997
2 41771  97.1654 249.4898 0002063 101.0054 259.1425 15.39155944266693
SKYSAT-C5               
1 41772U 16058C   21180.82100180  .00000961  00000-0  41837-4 0  9996
2 41772  97.3123 248.4675 0001893  84.4115 275.7338 15.24581416266026
SKYSAT-C2               
1 41773U 16058D   21180.85268084  .00002432  00000-0  64534-4 0  9992
2 41773  97.1661 249.8096 0002604  85.6632 274.4912 15.39254182266715
SKYSAT-C3               
1 41774U 16058E   21180.86477670  .00002436  00000-0  64812-4 0  9990
2 41774  97.1656 249.7716 0002075  98.8976 261.2505 15.39165080266706
PISAT                   
1 41784U 16059B   21180.88377857  .00000135  00000-0  34700-4 0  9997
2 41784  97.9658 231.9805 0031440 200.7736 159.2191 14.63634431254111
ALSAT 1B                
1 41785U 16059C   21180.91483147  .00000016  00000-0  12090-4 0  9998
2 41785  97.9581 231.0062 0030538 200.5795 159.4175 14.63403865254101
ALSAT 2B                
1 41786U 16059D   21180.89476550  .00000037  00000-0  15190-4 0  9993
2 41786  98.0152 247.7874 0001882  79.7363 280.4046 14.66670791254660
PATHFINDER 1            
1 41787U 16059E   21180.72334417  .00000046  00000-0  17774-4 0  9991
2 41787  97.9621 232.3147 0029778 199.0660 160.9422 14.63818728254136
CANX-7                  
1 41788U 16059F   21180.87190463  .00014625  00000-0  16338-2 0  9990
2 41788  98.2544 286.4796 0030246 153.6742 206.6004 14.86740018255714
SCATSAT 1               
1 41790U 16059H   21180.91696193  .00000025  00000-0  17555-4 0  9992
2 41790  98.3668 222.7354 0004654 188.8620 171.2480 14.50814545251952
GSAT-18                 
1 41793U 16060A   21180.84773618 -.00000086  00000-0  00000-0 0  9998
2 41793   0.0974 101.0614 0002919 324.7484 231.4944  1.00271673 17352
SKY MUSTER 2 (NBN1B)    
1 41794U 16060B   21179.71345786 -.00000255  00000-0  00000-0 0  9992
2 41794   0.0179 339.9408 0001855 123.7058 215.0171  1.00271754 17322
HIMAWARI-9              
1 41836U 16064A   21180.86108328 -.00000283  00000-0  00000-0 0  9991
2 41836   0.0070  21.0602 0001355  93.7943 254.0395  1.00272606 17001
SHIJIAN-17 (SJ-17)      
1 41838U 16065A   21180.87802752 -.00000372  00000-0  00000-0 0  9996
2 41838   1.1543  92.9294 0005015   8.8322 250.0173  1.00272569 17029
XPNAV-1                 
1 41841U 16066A   21180.82912243  .00000935  00000-0  42176-4 0  9991
2 41841  97.4098 187.7501 0016661  99.8611  22.6000 15.23391516257527
XIAOXIANG 1             
1 41842U 16066B   21180.89257712  .00001355  00000-0  57180-4 0  9990
2 41842  97.4020 189.5896 0015982  97.1282 347.2776 15.24897519257699
PINA 2A                 
1 41843U 16066C   21180.92083559  .00001215  00000-0  50107-4 0  9998
2 41843  97.4043 190.4271 0022798 111.5105 336.2057 15.25771800257731
PINA 2B                 
1 41844U 16066D   21180.91753449  .00001352  00000-0  55533-4 0  9990
2 41844  97.3971 191.0044 0016394  93.0902 355.4346 15.25824991257802
LISHUI 1-01             
1 41845U 16066E   21180.80679787  .00008391  00000-0  10609-2 0  9994
2 41845  98.7342 284.9037 0271306  82.6155 280.5782 14.59448639245204
CAS-2T & KS-1Q          
1 41847U 16066G   21180.85918003  .00000199  00000-0  40031-4 0  9990
2 41847  98.6004 240.0428 0365253 183.1824 176.7037 14.38202045243665
WORLDVIEW-4             
1 41848U 16067A   21180.87344613  .00032317  00000-0  18633-3 0  9993
2 41848  97.8071 331.9719 0010210 160.2915 199.8747 15.78562378255560
RAVAN                   
1 41849U 16067B   21180.87932471  .00000912  00000-0  80269-4 0  9990
2 41849  97.9646 303.9691 0009257  75.0619 285.1628 14.99075895253156
CELTEE 1                
1 41850U 16067C   21180.84628764 -.00000117  00000-0 -47557-5 0  9999
2 41850  97.9568 300.4167 0009877  73.1148 287.1156 14.97474465252976
OPTICUBE 04             
1 41851U 16067D   21180.85223956 -.00000015  00000-0  40204-5 0  9993
2 41851  97.9551 299.8028 0009942  76.3252 283.9076 14.97120249252940
AEROCUBE 8D             
1 41852U 16067E   21180.85745203  .00000365  00000-0  36812-4 0  9994
2 41852  97.9548 299.6842 0010664  77.1121 283.1291 14.97235341252925
AEROCUBE 8C             
1 41853U 16067F   21180.56352819  .00000118  00000-0  15482-4 0  9996
2 41853  97.9556 299.2509 0011543  77.9928 282.2587 14.97209707252870
PROMETHEUS 2-1          
1 41854U 16067G   21180.56630539  .00000303  00000-0  31113-4 0  9990
2 41854  97.9569 299.8724 0011816  76.0564 284.1971 14.97709791252909
PROMETHEUS 2-3          
1 41855U 16067H   21180.83080588  .00000441  00000-0  42842-4 0  9998
2 41855  97.9574 300.1954 0012083  75.9134 284.3429 14.97727846252940
YUNHAI 1                
1 41857U 16068A   21180.83339003  .00000189  00000-0  85763-4 0  9998
2 41857  98.5717 181.5107 0015024 310.6962  49.2918 14.32667699242145
GSAT0207 (GALILEO 15)   
1 41859U 16069A   21177.09636099  .00000030  00000-0  00000-0 0  9992
2 41859  54.7240 151.4703 0005674 295.7858  64.1035  1.70473008 28423
GSAT0212 (GALILEO 16)   
1 41860U 16069B   21180.46931320  .00000039  00000-0  00000-0 0  9993
2 41860  54.7226 151.3749 0004405 313.5411  46.3788  1.70473033 28732
GSAT0213 (GALILEO 17)   
1 41861U 16069C   21179.07519383  .00000033  00000-0  00000-0 0  9994
2 41861  54.7239 151.4182 0005097 278.6306  81.2624  1.70473170 28572
GSAT0214 (GALILEO 18)   
1 41862U 16069D   21179.22223104  .00000034  00000-0  00000-0 0  9996
2 41862  54.7228 151.4090 0004257 283.3397  76.5641  1.70473089 28709
GOES 16                 
1 41866U 16071A   21180.38740971 -.00000258  00000-0  00000-0 0  9997
2 41866   0.0957 101.1379 0001468  30.7393 210.1224  1.00272217 16926
TIANLIAN 1-04           
1 41869U 16072A   21180.79648159  .00000024  00000-0  00000-0 0  9991
2 41869   0.0506 110.1189 0024958 351.1264 280.4781  1.00275729 17126
LEMUR-2-XIAOQING        
1 41871U 16062C   21180.74436840  .00003496  00000-0  13485-3 0  9990
2 41871  51.6378 251.9906 0005652 121.8697 238.2833 15.28981009255898
LEMUR-2-SOKOLSKY        
1 41872U 16062D   21180.82112534  .00003893  00000-0  14941-3 0  9990
2 41872  51.6826 259.4753 0002342 223.1066 136.9731 15.28823247255877
